OBJECT_NAME,OBJECT_ID,EPOCH,MEAN_MOTION,ECCENTRICITY,INCLINATION,RA_OF_ASC_NODE,ARG_OF_PERICENTER,MEAN_ANOMALY,EPHEMERIS_TYPE,CLASSIFICATION_TYPE,NORAD_CAT_ID,ELEMENT_SET_NO,REV_AT_EPOCH,BSTAR,MEAN_MOTION_DOT,MEAN_MOTION_DDOT
ONEWEB-0012,2019-010A,2026-07-15T03:27:25.542432,13.16593371,.0001627,87.9079,223.2314,95.7341,264.3975,0,U,44057,999,35524,-.32246E-4,.1E-7,0
ONEWEB-0010,2019-010B,2026-07-15T02:14:29.601024,13.16593861,.0002287,87.9080,223.2376,100.3990,259.7399,0,U,44058,999,35528,-.52979E-4,-.7E-7,0
ONEWEB-0008,2019-010C,2026-07-15T02:50:57.994656,13.16593659,.0002165,87.9078,223.2278,86.2894,273.8484,0,U,44059,999,35540,.2299E-4,.22E-6,0
ONEWEB-0007,2019-010D,2026-07-15T04:13:29.035200,13.15548327,.0001947,87.8985,253.6443,105.9738,254.1607,0,U,44060,999,35505,-.69917E-4,-.13E-6,0
ONEWEB-0006,2019-010E,2026-07-15T04:19:09.840000,13.15551626,.0002252,87.8996,253.6106,97.5272,262.6114,0,U,44061,999,35510,-.14197E-4,.7E-7,0
ONEWEB-0011,2019-010F,2026-07-15T03:33:32.039136,13.15549904,.0002275,87.8998,253.6269,97.7280,262.4108,0,U,44062,999,35509,.58375E-3,.233E-5,0
ONEWEB-0013,2020-008A,2026-07-15T03:16:24.174624,13.09454771,.0000958,87.8487,47.1823,62.1298,297.9925,0,U,45131,999,30972,-.42223E-3,-.133E-5,0
ONEWEB-0017,2020-008B,2026-07-15T02:23:00.910176,13.10373328,.0002016,87.8811,30.7054,93.1637,266.9721,0,U,45132,999,31160,-.14142E-2,-.481E-5,0
ONEWEB-0020,2020-008C,2026-07-15T01:39:02.738016,13.10373151,.0001838,87.8821,30.7110,87.9648,272.1690,0,U,45133,999,31199,.1583E-2,.565E-5,0
ONEWEB-0021,2020-008D,2026-07-15T02:01:00.911712,13.10369261,.0001746,87.8811,30.7225,91.3549,268.7778,0,U,45134,999,31230,.72334E-3,.265E-5,0
ONEWEB-0023,2020-008F,2026-07-15T02:16:53.337792,13.10368990,.0001817,87.8816,30.7041,83.3346,276.7988,0,U,45136,999,31173,-.90662E-3,-.304E-5,0
ONEWEB-0024,2020-008G,2026-07-15T01:36:47.312928,13.10372494,.0001846,87.8828,30.7031,91.6473,268.4866,0,U,45137,999,31189,.18349E-2,.653E-5,0
ONEWEB-0025,2020-008H,2026-07-15T01:36:23.729184,13.10373025,.0002221,87.8828,30.6935,80.3868,279.7510,0,U,45138,999,31222,.18848E-2,.671E-5,0
ONEWEB-0026,2020-008J,2026-07-15T00:09:55.092960,13.11418541,.0002004,87.8884,15.5277,91.0485,269.0873,0,U,45139,999,31475,-.1424E-3,-.38E-6,0
ONEWEB-0028,2020-008K,2026-07-15T01:24:22.754880,13.11414913,.00013,87.8877,15.5246,84.1559,275.9717,0,U,45140,999,31227,-.12463E-2,-.429E-5,0
ONEWEB-0032,2020-008L,2026-07-15T02:25:39.310752,13.10371622,.0001477,87.8814,30.7073,76.7700,283.3592,0,U,45141,999,31195,-.17631E-2,-.603E-5,0
ONEWEB-0033,2020-008M,2026-07-15T01:48:48.777120,13.10370828,.0002283,87.8810,30.7182,97.2427,262.8960,0,U,45142,999,31186,.16358E-2,.584E-5,0
ONEWEB-0035,2020-008N,2026-07-15T02:18:19.173600,13.10374275,.000182,87.8810,30.7074,91.1148,269.0188,0,U,45143,999,31159,-.1032E-2,-.348E-5,0
ONEWEB-0036,2020-008P,2026-07-15T01:46:12.757728,13.10372859,.0001733,87.8829,30.7291,83.3923,276.7401,0,U,45144,999,31201,.17848E-2,.636E-5,0
ONEWEB-0038,2020-008Q,2026-07-15T00:24:46.531008,13.11418243,.0001998,87.8899,15.5385,142.9285,217.1981,0,U,45145,999,31397,.10216E-2,.375E-5,0
ONEWEB-0039,2020-008R,2026-07-15T01:53:42.093888,13.10369973,.0001337,87.8814,30.7084,79.8773,280.2505,0,U,45146,999,31181,.13786E-2,.494E-5,0
ONEWEB-0040,2020-008S,2026-07-15T01:43:55.130304,13.10371388,.0001873,87.8812,30.7200,76.5425,283.5911,0,U,45147,999,31151,.19156E-2,.681E-5,0
ONEWEB-0043,2020-008U,2026-07-15T01:46:34.114944,13.10374092,.0001345,87.8820,30.7091,81.6025,278.5255,0,U,45149,999,31183,.17319E-2,.617E-5,0
ONEWEB-0044,2020-008V,2026-07-15T02:27:53.978112,13.10373883,.0001747,87.8823,30.7055,85.5267,274.6060,0,U,45150,999,31213,-.18018E-2,-.616E-5,0
ONEWEB-0045,2020-008W,2026-07-15T00:17:14.822304,13.11418524,.0001722,87.8892,15.5206,91.0088,269.1237,0,U,45151,999,31405,.35386E-3,.138E-5,0
ONEWEB-0047,2020-008X,2026-07-15T02:17:54.674880,13.10369696,.0001872,87.8821,30.7058,93.2459,266.8883,0,U,45152,999,31185,-.10462E-2,-.353E-5,0
ONEWEB-0048,2020-008Y,2026-07-15T02:10:48.303840,13.10370768,.0001712,87.8810,30.7255,92.5602,267.5721,0,U,45153,999,31146,-.42035E-3,-.134E-5,0
ONEWEB-0049,2020-008Z,2026-07-15T02:15:27.631584,13.10369345,.0001912,87.8810,30.7140,75.0370,285.0969,0,U,45154,999,31168,-.85874E-3,-.287E-5,0
ONEWEB-0051,2020-008AA,2026-07-15T00:14:48.333696,13.11419549,.000185,87.8887,15.5265,90.1877,269.9463,0,U,45155,999,31473,.30434E-3,.121E-5,0
ONEWEB-0052,2020-008AB,2026-07-15T00:55:15.057408,13.10376745,.000176,87.8823,30.7130,76.2503,283.8820,0,U,45156,999,31158,-.15295E-2,-.521E-5,0
ONEWEB-0053,2020-008AC,2026-07-15T01:41:28.906080,13.10372239,.0001471,87.8814,30.7260,77.7459,282.3832,0,U,45157,999,31156,.18758E-2,.667E-5,0
