ONEWEB-0012             
1 44057U 19010A   26196.14404563  .00000001  00000+0 -32246-4 0  9994
2 44057  87.9079 223.2314 0001627  95.7341 264.3975 13.16593371355248
ONEWEB-0010             
1 44058U 19010B   26196.09339816 -.00000007  00000+0 -52979-4 0  9999
2 44058  87.9080 223.2376 0002287 100.3990 259.7399 13.16593861355281
ONEWEB-0008             
1 44059U 19010C   26196.11872679  .00000022  00000+0  22990-4 0  9997
2 44059  87.9078 223.2278 0002165  86.2894 273.8484 13.16593659355401
ONEWEB-0007             
1 44060U 19010D   26196.17603050 -.00000013  00000+0 -69917-4 0  9992
2 44060  87.8985 253.6443 0001947 105.9738 254.1607 13.15548327355054
ONEWEB-0006             
1 44061U 19010E   26196.17997500  .00000007  00000+0 -14197-4 0  9991
2 44061  87.8996 253.6106 0002252  97.5272 262.6114 13.15551626355101
ONEWEB-0011             
1 44062U 19010F   26196.14828749  .00000233  00000+0  58375-3 0  9992
2 44062  87.8998 253.6269 0002275  97.7280 262.4108 13.15549904355095
ONEWEB-0013             
1 45131U 20008A   26196.13639091 -.00000133  00000+0 -42223-3 0  9994
2 45131  87.8487  47.1823 0000958  62.1298 297.9925 13.09454771309728
ONEWEB-0017             
1 45132U 20008B   26196.09931609 -.00000481  00000+0 -14142-2 0  9994
2 45132  87.8811  30.7054 0002016  93.1637 266.9721 13.10373328311602
ONEWEB-0020             
1 45133U 20008C   26196.06878169  .00000565  00000+0  15830-2 0  9999
2 45133  87.8821  30.7110 0001838  87.9648 272.1690 13.10373151311991
ONEWEB-0021             
1 45134U 20008D   26196.08403833  .00000265  00000+0  72334-3 0  9994
2 45134  87.8811  30.7225 0001746  91.3549 268.7778 13.10369261312306
ONEWEB-0023             
1 45136U 20008F   26196.09506178 -.00000304  00000+0 -90662-3 0  9993
2 45136  87.8816  30.7041 0001817  83.3346 276.7988 13.10368990311730
ONEWEB-0024             
1 45137U 20008G   26196.06721427  .00000653  00000+0  18349-2 0  9993
2 45137  87.8828  30.7031 0001846  91.6473 268.4866 13.10372494311892
ONEWEB-0025             
1 45138U 20008H   26196.06694131  .00000671  00000+0  18848-2 0  9999
2 45138  87.8828  30.6935 0002221  80.3868 279.7510 13.10373025312226
ONEWEB-0026             
1 45139U 20008J   26196.00688765 -.00000038  00000+0 -14240-3 0  9992
2 45139  87.8884  15.5277 0002004  91.0485 269.0873 13.11418541314751
ONEWEB-0028             
1 45140U 20008K   26196.05859670 -.00000429  00000+0 -12463-2 0  9992
2 45140  87.8877  15.5246 0001300  84.1559 275.9717 13.11414913312271
ONEWEB-0032             
1 45141U 20008L   26196.10114943 -.00000603  00000+0 -17631-2 0  9992
2 45141  87.8814  30.7073 0001477  76.7700 283.3592 13.10371622311956
ONEWEB-0033             
1 45142U 20008M   26196.07556455  .00000584  00000+0  16358-2 0  9998
2 45142  87.8810  30.7182 0002283  97.2427 262.8960 13.10370828311862
ONEWEB-0035             
1 45143U 20008N   26196.09605525 -.00000348  00000+0 -10320-2 0  9997
2 45143  87.8810  30.7074 0001820  91.1148 269.0188 13.10374275311593
ONEWEB-0036             
1 45144U 20008P   26196.07375877  .00000636  00000+0  17848-2 0  9990
2 45144  87.8829  30.7291 0001733  83.3923 276.7401 13.10372859312019
ONEWEB-0038             
1 45145U 20008Q   26196.01720522  .00000375  00000+0  10216-2 0  9998
2 45145  87.8899  15.5385 0001998 142.9285 217.1981 13.11418243313975
ONEWEB-0039             
1 45146U 20008R   26196.07895942  .00000494  00000+0  13786-2 0  9991
2 45146  87.8814  30.7084 0001337  79.8773 280.2505 13.10369973311813
ONEWEB-0040             
1 45147U 20008S   26196.07216586  .00000681  00000+0  19156-2 0  9998
2 45147  87.8812  30.7200 0001873  76.5425 283.5911 13.10371388311512
ONEWEB-0043             
1 45149U 20008U   26196.07400596  .00000617  00000+0  17319-2 0  9994
2 45149  87.8820  30.7091 0001345  81.6025 278.5255 13.10374092311833
ONEWEB-0044             
1 45150U 20008V   26196.10270808 -.00000616  00000+0 -18018-2 0  9999
2 45150  87.8823  30.7055 0001747  85.5267 274.6060 13.10373883312137
ONEWEB-0045             
1 45151U 20008W   26196.01197711  .00000138  00000+0  35386-3 0  9996
2 45151  87.8892  15.5206 0001722  91.0088 269.1237 13.11418524314050
ONEWEB-0047             
1 45152U 20008X   26196.09577170 -.00000353  00000+0 -10462-2 0  9994
2 45152  87.8821  30.7058 0001872  93.2459 266.8883 13.10369696311859
ONEWEB-0048             
1 45153U 20008Y   26196.09083685 -.00000134  00000+0 -42035-3 0  9997
2 45153  87.8810  30.7255 0001712  92.5602 267.5721 13.10370768311460
ONEWEB-0049             
1 45154U 20008Z   26196.09406981 -.00000287  00000+0 -85874-3 0  9993
2 45154  87.8810  30.7140 0001912  75.0370 285.0969 13.10369345311686
ONEWEB-0051             
1 45155U 20008AA  26196.01028164  .00000121  00000+0  30434-3 0  9996
2 45155  87.8887  15.5265 0001850  90.1877 269.9463 13.11419549314733
ONEWEB-0052             
1 45156U 20008AB  26196.03836872 -.00000521  00000+0 -15295-2 0  9995
2 45156  87.8823  30.7130 0001760  76.2503 283.8820 13.10376745311586
ONEWEB-0053             
1 45157U 20008AC  26196.07047345  .00000667  00000+0  18758-2 0  9995
2 45157  87.8814  30.7260 0001471  77.7459 282.3832 13.10372239311565
